COSMOS 2534 [GLONASS-M] 
1 44299U 19030A   26188.88417133  .00000124  00000+0  00000+0 0  9996
2 44299  64.3703 191.9194 0013559 274.9800 262.1964  2.13102297 55366
BEIDOU-3 IGSO-2         
1 44337U 19035A   26188.81033301 -.00000072  00000+0  00000+0 0  9991
2 44337  55.2504 158.6819 0039633 216.3902 321.3360  1.00260158 25872
NAVSTAR 78 (USA 293)    
1 44506U 19056A   26188.84361316 -.00000072  00000+0  00000+0 0  9995
2 44506  55.6262 330.3229 0063112 198.0249 344.7906  2.00569949 50489
BEIDOU-3 M24            
1 44542U 19061A   26188.64669435  .00000121  00000+0  00000+0 0  9996
2 44542  54.3975 182.0378 0008580 359.2255   0.7815  1.86229348 46177
BEIDOU-3 M23            
1 44543U 19061B   26188.78283669  .00000121  00000+0  00000+0 0  9993
2 44543  54.3961 182.0018 0005857 339.4265  23.3222  1.86227400 46180
EUTELSAT 5 WEST B       
1 44624U 19067A   26189.17475236 -.00000027  00000+0  00000+0 0  9992
2 44624   0.0650 341.7961 0003132 126.6342 235.6075  1.00271339 24647
BEIDOU-3 M22            
1 44793U 19078A   26186.33900275 -.00000058  00000+0  00000+0 0  9996
2 44793  53.9186 299.1896 0005914  49.8831 310.1966  1.86227646 44980
BEIDOU-3 M21            
1 44794U 19078B   26189.16367219 -.00000063  00000+0  00000+0 0  9992
2 44794  53.8889 299.0507 0003791  48.5315 311.5256  1.86228045 45041
COSMOS 2544 [GLONASS-M] 
1 44850U 19088A   26188.20757394 -.00000019  00000+0  00000+0 0  9998
2 44850  65.5757  73.0630 0012575 256.0344 103.8880  2.13103181 51140
BEIDOU-3 M19            
1 44864U 19090A   26189.14410865 -.00000045  00000+0  00000+0 0  9998
2 44864  56.5765  62.0989 0017044 297.4467 246.9869  1.86231659 44622
BEIDOU-3 M20            
1 44865U 19090B   26187.92858764 -.00000042  00000+0  00000+0 0  9994
2 44865  56.5768  62.1737 0014942 312.1641 226.9103  1.86231636 44580
BEIDOU-3 G2             
1 45344U 20017A   26189.15894098 -.00000127  00000+0  00000+0 0  9999
2 45344   2.9040  47.6302 0002364  54.2846 321.4953  1.00270497 23476
COSMOS 2545 [GLONASS-M] 
1 45358U 20018A   26188.87178822 -.00000052  00000+0  00000+0 0  9990
2 45358  64.3418 311.6924 0009213 230.0450 129.8870  2.13102711 49105
BEIDOU-3 G3             
1 45807U 20040A   26189.11642233 -.00000340  00000+0  00000+0 0  9994
2 45807   2.4953  67.4789 0002037 333.5581  37.4757  1.00268168 22289
NAVSTAR 79 (USA 304)    
1 45854U 20041A   26187.18030691 -.00000055  00000+0  00000+0 0  9994
2 45854  56.6823  28.2076 0064724 204.5515 154.8185  2.00558250 44410
GALAXY 30 (G-30)        
1 46114U 20056C   26189.04707888  .00000052  00000+0  00000+0 0  9992
2 46114   0.0173  47.4015 0002100  60.4134  70.1440  1.00270654 21500
COSMOS 2547 [GLONASS-K] 
1 46805U 20075A   26189.06147770  .00000125  00000+0  00000+0 0  9991
2 46805  64.6012 191.7788 0009447 239.8326 120.1056  2.13100176 44354
NAVSTAR 80 (USA 309)    
1 46826U 20078A   26189.20407487  .00000106  00000+0  00000+0 0  9996
2 46826  53.9782 209.9265 0074358 207.6144 150.0320  2.00564872 41927
NAVSTAR 81 (USA 319)    
1 48859U 21054A   26188.45135924 -.00000072  00000+0  00000+0 0  9992
2 48859  55.1638 331.6461 0026195 228.4720 132.0146  2.00567664 37166
QZS-1R (MICHIBIKI-1R)   
1 49336U 21096A   26188.59693977 -.00000264  00000+0  00000+0 0  9994
2 49336  37.5005  79.2823 0755406 272.1222 281.4736  1.00248309 17212
GSAT0223 (GALILEO 27)   
1 49809U 21116A   26188.53054280 -.00000072  00000+0  00000+0 0  9991
2 49809  57.1541 341.1269 0002092 192.1025 172.9175  1.70476066 28531
GSAT0224 (GALILEO 28)   
1 49810U 21116B   26188.35016565 -.00000071  00000+0  00000+0 0  9996
2 49810  57.1546 341.1306 0001631 175.8676 191.0805  1.70476148 28553
COSMOS 2557 [GLONASS-K] 
1 52984U 22075A   26188.28712434 -.00000050  00000+0  00000+0 0  9994
2 52984  64.2857 313.7776 0010595 272.6042  87.2866  2.13102498 31145
COSMOS 2559 [GLONASS-K] 
1 54031U 22130A   26188.57607023 -.00000051  00000+0  00000+0 0  9991
2 54031  64.2580 313.8500 0012956 180.1855 179.8260  2.13101678 29127
COSMOS 2564 [GLONASS-M] 
1 54377U 22161A   26187.94997608  .00000118  00000+0  00000+0 0  9992
2 54377  64.7434 192.0556 0012256 225.0920 134.8385  2.13102000 28056
NAVSTAR 82 (USA 343)    
1 55268U 23009A   26189.14195421  .00000071  00000+0  00000+0 0  9999
2 55268  55.1237 147.6955 0006210 319.8911 217.8197  2.00570045 25666
BEIDOU-3 G4             
1 56564U 23066A   26187.31732966 -.00000268  00000+0  00000+0 0  9999
2 56564   0.4680 336.2679 0005056 178.9368  23.3032  1.00266978 11587
NVS-01 (IRNSS-1J)       
1 56759U 23076A   26189.02619212 -.00000319  00000+0  00000+0 0  9991
2 56759   2.1197 243.4223 0003307   7.4004 174.1398  1.00268489 11320
COSMOS 2569 [GLONASS-K2]
1 57517U 23114A   26188.43154497 -.00000021  00000+0  00000+0 0  9990
2 57517  65.3135  71.9380 0009941 296.3813  63.5792  2.13103726 22699
BEIDOU-3 M28            
1 58654U 23207A   26186.01893255 -.00000039  00000+0  00000+0 0  9999
2 58654  55.7683  61.7016 0002708 358.6416   1.4251  1.86229759 17173
BEIDOU-3 M26            
1 58655U 23207B   26187.96425191 -.00000044  00000+0  00000+0 0  9991
2 58655  55.7724  61.6226 0002296 323.9570  36.0904  1.86229712 17190
